OBJECT_NAME,OBJECT_ID,EPOCH,MEAN_MOTION,ECCENTRICITY,INCLINATION,RA_OF_ASC_NODE,ARG_OF_PERICENTER,MEAN_ANOMALY,EPHEMERIS_TYPE,CLASSIFICATION_TYPE,NORAD_CAT_ID,ELEMENT_SET_NO,REV_AT_EPOCH,BSTAR,MEAN_MOTION_DOT,MEAN_MOTION_DDOT
LEMUR-2-CELIJO-SB-PK,2025-276DW,2026-06-18T18:30:14.956416,14.99992221,.00086834,97.5245,240.4969,128.7901,231.4100,0,U,66781,999,2286,.38602036E-3,.4746E-4,0
LEMUR-2-FINNIAN,2025-276DX,2026-06-19T11:32:52.500480,15.00402483,.00088951,97.5290,241.3999,82.7214,277.5021,0,U,66782,999,2034,.44449017E-3,.5534E-4,0
LEMUR-2-STARLIGHT,2025-276DY,2026-06-19T10:32:56.756256,14.99060795,.00150695,97.5256,241.0026,121.7031,238.5664,0,U,66783,999,3053,.38322641E-3,.4605E-4,0
LEMUR-2-TARTIFLETTE,2025-276DZ,2026-06-19T10:30:41.654304,14.99086353,.00140101,97.5258,241.0073,128.1688,232.0800,0,U,66784,999,3053,.32302999E-3,.3874E-4,0
LEMUR-2-VUKASIN,2025-276EA,2026-06-19T10:18:45.337824,15.00387261,.00060662,97.5297,241.3008,119.1484,241.0348,0,U,66785,999,3048,.36497521E-3,.4529E-4,0
LEMUR-2-HOTSPUR-TOM,2025-276EB,2026-06-19T10:20:13.497792,14.98981834,.00153726,97.5257,240.9811,120.9498,239.3239,0,U,66786,999,3046,.38803055E-3,.4654E-4,0
LEMUR-2-MYRA,2025-276EC,2026-06-19T11:04:20.601120,15.00274706,.00168417,97.5213,241.2678,134.0624,226.1991,0,U,66787,999,3055,.5514085E-3,.6872E-4,0
LEMUR-2 FIKRETDENGIZ,2026-004A,2026-06-19T13:18:39.668256,14.88339314,.00102623,97.8019,169.0760,126.2869,233.9298,0,U,67363,999,2363,.34950308E-3,.3183E-4,0
TWILIGHT-1 OBJECT B,2026-004B,2026-06-19T12:18:27.429408,14.87708915,.00100887,97.8061,169.0492,117.7730,242.4511,0,U,67364,999,2363,.15512319E-3,.136E-4,0
LEMUR-2-MARIO-SOUSA,2026-004C,2026-06-19T06:27:26.449632,14.88527155,.00098518,97.7989,168.7911,127.7711,232.4400,0,U,67365,999,2360,.42223362E-3,.3875E-4,0
LEMUR-2-SONNENBLUME,2026-004E,2026-06-19T11:15:57.988224,14.88325366,.00093434,97.7984,168.9721,128.7374,231.4679,0,U,67367,999,2363,.27419711E-3,.2484E-4,0
LEMUR-2-WOBLER,2026-004F,2026-06-18T23:48:32.664672,14.88525973,.00097259,97.8038,168.6263,120.7773,239.4402,0,U,67368,999,2356,.30915882E-3,.2822E-4,0
LEMUR-2-GRAM-E-SUE,2026-004H,2026-06-18T23:35:09.492000,14.88476924,.00083174,97.7971,168.5083,130.7429,229.4511,0,U,67370,999,2356,.17338348E-3,.1556E-4,0
LEMUR-2-KATIE,2026-004AA,2026-06-19T13:44:23.693280,14.90060068,.00048333,97.8036,169.5560,88.1054,272.0717,0,U,67387,999,2366,.23688209E-3,.2233E-4,0
LEMUR-2-HCS-BAZUS,2026-004AB,2026-06-19T13:42:58.921920,14.90089564,.00043668,97.8025,169.5356,86.0649,274.1068,0,U,67388,999,2366,.38288178E-3,.3646E-4,0
