LEMUR-2-CELIJO-SB-PK    
1 66781U 25276DW  26169.77100644  .00004746  00000+0  38602-3 0  9995
2 66781  97.5245 240.4969 0008683 128.7901 231.4100 14.99992221 22866
LEMUR-2-FINNIAN         
1 66782U 25276DX  26170.48116320  .00005534  00000+0  44449-3 0  9996
2 66782  97.5290 241.3999 0008895  82.7214 277.5021 15.00402483 20344
LEMUR-2-STARLIGHT       
1 66783U 25276DY  26170.43954579  .00004605  00000+0  38323-3 0  9990
2 66783  97.5256 241.0026 0015069 121.7031 238.5664 14.99060795 30532
LEMUR-2-TARTIFLETTE     
1 66784U 25276DZ  26170.43798211  .00003874  00000+0  32303-3 0  9999
2 66784  97.5258 241.0073 0014010 128.1688 232.0800 14.99086353 30530
LEMUR-2-VUKASIN         
1 66785U 25276EA  26170.42969141  .00004529  00000+0  36498-3 0  9998
2 66785  97.5297 241.3008 0006066 119.1484 241.0348 15.00387261 30487
LEMUR-2-HOTSPUR-TOM     
1 66786U 25276EB  26170.43071178  .00004654  00000+0  38803-3 0  9995
2 66786  97.5257 240.9811 0015372 120.9498 239.3239 14.98981834 30465
LEMUR-2-MYRA            
1 66787U 25276EC  26170.46134955  .00006872  00000+0  55141-3 0  9990
2 66787  97.5213 241.2678 0016841 134.0624 226.1991 15.00274706 30558
LEMUR-2 FIKRETDENGIZ    
1 67363U 26004A   26170.55462579  .00003183  00000+0  34950-3 0  9994
2 67363  97.8019 169.0760 0010262 126.2869 233.9298 14.88339314 23639
TWILIGHT-1 OBJECT B     
1 67364U 26004B   26170.51281747  .00001360  00000+0  15512-3 0  9995
2 67364  97.8061 169.0492 0010088 117.7730 242.4511 14.87708915 23636
LEMUR-2-MARIO-SOUSA     
1 67365U 26004C   26170.26905613  .00003875  00000+0  42223-3 0  9995
2 67365  97.7989 168.7911 0009851 127.7711 232.4400 14.88527155 23602
LEMUR-2-SONNENBLUME     
1 67367U 26004E   26170.46942116  .00002484  00000+0  27420-3 0  9995
2 67367  97.7984 168.9721 0009343 128.7374 231.4679 14.88325366 23632
LEMUR-2-WOBLER          
1 67368U 26004F   26169.99204473  .00002822  00000+0  30916-3 0  9999
2 67368  97.8038 168.6263 0009725 120.7773 239.4402 14.88525973 23561
LEMUR-2-GRAM-E-SUE      
1 67370U 26004H   26169.98274875  .00001556  00000+0  17338-3 0  9990
2 67370  97.7971 168.5083 0008317 130.7429 229.4511 14.88476924 23564
LEMUR-2-KATIE           
1 67387U 26004AA  26170.57249645  .00002233  00000+0  23688-3 0  9990
2 67387  97.8036 169.5560 0004833  88.1054 272.0717 14.90060068 23669
LEMUR-2-HCS-BAZUS       
1 67388U 26004AB  26170.57151530  .00003646  00000+0  38288-3 0  9997
2 67388  97.8025 169.5356 0004366  86.0649 274.1068 14.90089564 23663
